COSMOS 2242             
1 22626U 93024A   26093.77520257  .00003985  00000+0  34637-3 0  9991
2 22626  82.5174 242.7152 0015496 217.1470 142.8681 14.96669797784145
SL-16 R/B               
1 22803U 93059B   26093.81553632  .00000070  00000+0  58483-4 0  9992
2 22803  70.9906 318.1439 0017096 179.3794 180.7354 14.17234811683096
ARIANE 40 R/B           
1 22830U 93061H   26093.76762537  .00000356  00000+0  14629-3 0  9995
2 22830  98.4871 162.1547 0010326 203.9260 156.1446 14.32875370697698
COSMOS 2278             
1 23087U 94023A   26093.49244014 -.00000001  00000+0  24198-4 0  9995
2 23087  71.0506 123.2078 0009319 336.5265  23.5431 14.14374884648310
SL-16 R/B               
1 23088U 94023B   26093.88119913  .00000200  00000+0  12768-3 0  9997
2 23088  71.0031  17.9816 0005577 263.6690  96.3797 14.15019482649659
SL-16 R/B               
1 23343U 94074B   26093.62554270  .00000832  00000+0  11806-3 0  9991
2 23343  97.7071 123.4294 0007660 131.8871 342.3107 14.79438623690935
SL-16 R/B               
1 23405U 94077B   26093.85297003 -.00000190  00000+0 -72619-4 0  9995
2 23405  70.9821 299.5516 0001614 190.4138 169.6951 14.15568226619797
ARIANE 40+ R/B          
1 23561U 95021B   26093.70631675  .00000499  00000+0  17288-3 0  9999
2 23561  98.4454 164.8446 0007854  72.1356  41.9891 14.39791754622848
SL-16 R/B               
1 23705U 95058B   26093.50785486 -.00000068  00000+0 -10658-4 0  9996
2 23705  71.0192 128.1524 0010269  80.2061 280.0221 14.15497860571369
SL-16 R/B               
1 24298U 96051B   26093.52843798  .00000145  00000+0  10536-3 0  9999
2 24298  70.7581 122.6662 0013136 107.2994 252.9564 14.12423229525157
ORBVIEW 2 (SEASTAR)     
1 24883U 97037A   26093.71957782  .00000475  00000+0  18147-3 0  9996
2 24883  98.8610 258.7003 0002104  15.5240 344.6009 14.35513875512060
SL-16 R/B               
1 25400U 98043G   26093.85002027  .00000117  00000+0  68031-4 0  9999
2 25400  98.8297  47.3985 0008971 305.6096  54.4247 14.26056012442571
